[
    {
        "Altitude(m)": 607895.858693285,
        "Argument of Periapsis(deg)": 0.0,
        "Eccentricity": 0.0,
        "Inclination(deg)": 60.0,
        "Latitude(deg)": 40.99845148206389,
        "Longitude(deg)": 95.08864711847932,
        "Mean Anomaly(deg)": 130.9091,
        "RAAN(deg)": 45.0,
        "Satellite Name": "Test1 206",
        "Satellite Number": 206,
        "Semi-Major Axis(m)": 6980739.136638005,
        "Time(s)": 0
    },
    {
        "Altitude(m)": 607795.1714280642,
        "Argument of Periapsis(deg)": 0.00010418945913296404,
        "Eccentricity": 0.0,
        "Inclination(deg)": 60.0,
        "Latitude(deg)": 40.530775732381485,
        "Longitude(deg)": 95.58524175169364,
        "Mean Anomaly(deg)": 131.52920614546187,
        "RAAN(deg)": 44.99957995086026,
        "Satellite Name": "Test1 206",
        "Satellite Number": 206,
        "Semi-Major Axis(m)": 6980739.136638005,
        "Time(s)": 10
    }
]